STARLINK-36040          
1 66614U 25270AC  25358.69500747  .00051125  00000+0  12226-2 0  9998
2 66614  43.0023 123.4071 0001946 261.6750  98.3886 15.40708736  6034
STARLINK-35988          
1 66615U 25270AD  25358.64361931  .00050626  00000+0  12104-2 0  9994
2 66615  42.9985 123.8838 0000845 268.0522  92.0238 15.40720042  6025
STARLINK-35391          
1 66616U 25270AE  25358.36638655  .00051279  00000+0  12254-2 0  9995
2 66616  42.9974 125.2405 0000916 275.8845  84.1907 15.40729798  6250
STARLINK-35940          
1 66617U 25271A   25358.65439524  .00023525  00000+0  59606-3 0  9999
2 66617  53.1600 130.9434 0000952  82.8453 277.2660 15.39631392  6045
STARLINK-35970          
1 66618U 25271B   25359.16668980 -.01682614  00000+0 -42997-1 0  9993
2 66618  53.1602 127.8603 0001285  95.0826 199.3817 15.42387678  6037
STARLINK-35951          
1 66619U 25271C   25359.16668980  .00065492  00000+0  16354-2 0  9999
2 66619  53.1593 128.0671 0001228  87.0433 105.8683 15.39579886  6085
STARLINK-35936          
1 66620U 25271D   25359.16668980  .00063976  00000+0  15983-2 0  9993
2 66620  53.1595 128.1714 0000896  80.2192  61.2036 15.39576135  6075
STARLINK-35847          
1 66621U 25271E   25359.16668980 -.00212291  00000+0 -44510-2 0  9990
2 66621  53.1603 127.8454 0001105  94.1350 207.5675 15.45613962  6034
STARLINK-35950          
1 66622U 25271F   25359.09022734  .00030632  00000+0  77232-3 0  9997
2 66622  53.1595 128.6846 0001233  83.6271 276.4874 15.39635182  6112
STARLINK-35920          
1 66623U 25271G   25358.83985206  .00032950  00000+0  82949-3 0  9997
2 66623  53.1613 129.9627 0000739  82.3587 277.7502 15.39644776  6077
STARLINK-35927          
1 66624U 25271H   25359.16668980  .00081557  00000+0  20292-2 0  9991
2 66624  53.1596 128.0166 0000268 108.2894 110.3247 15.39589706  6082
STARLINK-35929          
1 66625U 25271J   25359.08093756  .00036377  00000+0  91454-3 0  9995
2 66625  53.1599 128.6236 0000915  76.8291 283.2816 15.39637439  6113
