CCSDS_OMM_VERS = 2.0
CREATION_DATE  = 
ORIGINATOR     = 

OBJECT_NAME    = STARLINK-36040
OBJECT_ID      = 2025-270AC
CENTER_NAME    = EARTH
REF_FRAME      = TEME
TIME_SYSTEM    = UTC
MEAN_ELEMENT_THEORY = SGP/SGP4

EPOCH          = 2025-12-24T16:40:48.645408
MEAN_MOTION    = 15.40708736
ECCENTRICITY   = .00019469
INCLINATION    = 43.0023
RA_OF_ASC_NODE = 123.4071
ARG_OF_PERICENTER = 261.6750
MEAN_ANOMALY   = 98.3886

EPHEMERIS_TYPE = 0
CLASSIFICATION_TYPE = U
NORAD_CAT_ID   = 66614
ELEMENT_SET_NO = 999
REV_AT_EPOCH   = 603
BSTAR          = .12225768E-2
MEAN_MOTION_DOT = .51125E-3
MEAN_MOTION_DDOT = 0

CCSDS_OMM_VERS = 2.0
CREATION_DATE  = 
ORIGINATOR     = 

OBJECT_NAME    = STARLINK-35988
OBJECT_ID      = 2025-270AD
CENTER_NAME    = EARTH
REF_FRAME      = TEME
TIME_SYSTEM    = UTC
MEAN_ELEMENT_THEORY = SGP/SGP4

EPOCH          = 2025-12-24T15:26:48.708384
MEAN_MOTION    = 15.40720042
ECCENTRICITY   = .00008454
INCLINATION    = 42.9985
RA_OF_ASC_NODE = 123.8838
ARG_OF_PERICENTER = 268.0522
MEAN_ANOMALY   = 92.0238

EPHEMERIS_TYPE = 0
CLASSIFICATION_TYPE = U
NORAD_CAT_ID   = 66615
ELEMENT_SET_NO = 999
REV_AT_EPOCH   = 602
BSTAR          = .12103707E-2
MEAN_MOTION_DOT = .50626E-3
MEAN_MOTION_DDOT = 0

CCSDS_OMM_VERS = 2.0
CREATION_DATE  = 
ORIGINATOR     = 

OBJECT_NAME    = STARLINK-35391
OBJECT_ID      = 2025-270AE
CENTER_NAME    = EARTH
REF_FRAME      = TEME
TIME_SYSTEM    = UTC
MEAN_ELEMENT_THEORY = SGP/SGP4

EPOCH          = 2025-12-24T08:47:35.797920
MEAN_MOTION    = 15.40729798
ECCENTRICITY   = .00009163
INCLINATION    = 42.9974
RA_OF_ASC_NODE = 125.2405
ARG_OF_PERICENTER = 275.8845
MEAN_ANOMALY   = 84.1907

EPHEMERIS_TYPE = 0
CLASSIFICATION_TYPE = U
NORAD_CAT_ID   = 66616
ELEMENT_SET_NO = 999
REV_AT_EPOCH   = 625
BSTAR          = .12253863E-2
MEAN_MOTION_DOT = .51279E-3
MEAN_MOTION_DDOT = 0

CCSDS_OMM_VERS = 2.0
CREATION_DATE  = 
ORIGINATOR     = 

OBJECT_NAME    = STARLINK-35940
OBJECT_ID      = 2025-271A
CENTER_NAME    = EARTH
REF_FRAME      = TEME
TIME_SYSTEM    = UTC
MEAN_ELEMENT_THEORY = SGP/SGP4

EPOCH          = 2025-12-24T15:42:19.748736
MEAN_MOTION    = 15.39631392
ECCENTRICITY   = .0000952
INCLINATION    = 53.1600
RA_OF_ASC_NODE = 130.9434
ARG_OF_PERICENTER = 82.8453
MEAN_ANOMALY   = 277.2660

EPHEMERIS_TYPE = 0
CLASSIFICATION_TYPE = U
NORAD_CAT_ID   = 66617
ELEMENT_SET_NO = 999
REV_AT_EPOCH   = 604
BSTAR          = .59606E-3
MEAN_MOTION_DOT = .23525E-3
MEAN_MOTION_DDOT = 0

CCSDS_OMM_VERS = 2.0
CREATION_DATE  = 
ORIGINATOR     = 

OBJECT_NAME    = STARLINK-35970
OBJECT_ID      = 2025-271B
CENTER_NAME    = EARTH
REF_FRAME      = TEME
TIME_SYSTEM    = UTC
MEAN_ELEMENT_THEORY = SGP/SGP4

EPOCH          = 2025-12-25T04:00:01.998720
MEAN_MOTION    = 15.42387678
ECCENTRICITY   = .0001285
INCLINATION    = 53.1602
RA_OF_ASC_NODE = 127.8603
ARG_OF_PERICENTER = 95.0826
MEAN_ANOMALY   = 199.3817

EPHEMERIS_TYPE = 0
CLASSIFICATION_TYPE = U
NORAD_CAT_ID   = 66618
ELEMENT_SET_NO = 999
REV_AT_EPOCH   = 603
BSTAR          = -.42997E-1
MEAN_MOTION_DOT = -.1682614E-1
MEAN_MOTION_DDOT = 0

CCSDS_OMM_VERS = 2.0
CREATION_DATE  = 
ORIGINATOR     = 

OBJECT_NAME    = STARLINK-35951
OBJECT_ID      = 2025-271C
CENTER_NAME    = EARTH
REF_FRAME      = TEME
TIME_SYSTEM    = UTC
MEAN_ELEMENT_THEORY = SGP/SGP4

EPOCH          = 2025-12-25T04:00:01.998720
MEAN_MOTION    = 15.39579886
ECCENTRICITY   = .0001228
INCLINATION    = 53.1593
RA_OF_ASC_NODE = 128.0671
ARG_OF_PERICENTER = 87.0433
MEAN_ANOMALY   = 105.8683

EPHEMERIS_TYPE = 0
CLASSIFICATION_TYPE = U
NORAD_CAT_ID   = 66619
ELEMENT_SET_NO = 999
REV_AT_EPOCH   = 608
BSTAR          = .16354E-2
MEAN_MOTION_DOT = .65492E-3
MEAN_MOTION_DDOT = 0

CCSDS_OMM_VERS = 2.0
CREATION_DATE  = 
ORIGINATOR     = 

OBJECT_NAME    = STARLINK-35936
OBJECT_ID      = 2025-271D
CENTER_NAME    = EARTH
REF_FRAME      = TEME
TIME_SYSTEM    = UTC
MEAN_ELEMENT_THEORY = SGP/SGP4

EPOCH          = 2025-12-25T04:00:01.998720
MEAN_MOTION    = 15.39576135
ECCENTRICITY   = .0000896
INCLINATION    = 53.1595
RA_OF_ASC_NODE = 128.1714
ARG_OF_PERICENTER = 80.2192
MEAN_ANOMALY   = 61.2036

EPHEMERIS_TYPE = 0
CLASSIFICATION_TYPE = U
NORAD_CAT_ID   = 66620
ELEMENT_SET_NO = 999
REV_AT_EPOCH   = 607
BSTAR          = .15983E-2
MEAN_MOTION_DOT = .63976E-3
MEAN_MOTION_DDOT = 0

CCSDS_OMM_VERS = 2.0
CREATION_DATE  = 
ORIGINATOR     = 

OBJECT_NAME    = STARLINK-35847
OBJECT_ID      = 2025-271E
CENTER_NAME    = EARTH
REF_FRAME      = TEME
TIME_SYSTEM    = UTC
MEAN_ELEMENT_THEORY = SGP/SGP4

EPOCH          = 2025-12-25T04:00:01.998720
MEAN_MOTION    = 15.45613962
ECCENTRICITY   = .0001105
INCLINATION    = 53.1603
RA_OF_ASC_NODE = 127.8454
ARG_OF_PERICENTER = 94.1350
MEAN_ANOMALY   = 207.5675

EPHEMERIS_TYPE = 0
CLASSIFICATION_TYPE = U
NORAD_CAT_ID   = 66621
ELEMENT_SET_NO = 999
REV_AT_EPOCH   = 603
BSTAR          = -.4451E-2
MEAN_MOTION_DOT = -.212291E-2
MEAN_MOTION_DDOT = 0

CCSDS_OMM_VERS = 2.0
CREATION_DATE  = 
ORIGINATOR     = 

OBJECT_NAME    = STARLINK-35950
OBJECT_ID      = 2025-271F
CENTER_NAME    = EARTH
REF_FRAME      = TEME
TIME_SYSTEM    = UTC
MEAN_ELEMENT_THEORY = SGP/SGP4

EPOCH          = 2025-12-25T02:09:55.642176
MEAN_MOTION    = 15.39635182
ECCENTRICITY   = .0001233
INCLINATION    = 53.1595
RA_OF_ASC_NODE = 128.6846
ARG_OF_PERICENTER = 83.6271
MEAN_ANOMALY   = 276.4874

EPHEMERIS_TYPE = 0
CLASSIFICATION_TYPE = U
NORAD_CAT_ID   = 66622
ELEMENT_SET_NO = 999
REV_AT_EPOCH   = 611
BSTAR          = .77232E-3
MEAN_MOTION_DOT = .30632E-3
MEAN_MOTION_DDOT = 0

CCSDS_OMM_VERS = 2.0
CREATION_DATE  = 
ORIGINATOR     = 

OBJECT_NAME    = STARLINK-35920
OBJECT_ID      = 2025-271G
CENTER_NAME    = EARTH
REF_FRAME      = TEME
TIME_SYSTEM    = UTC
MEAN_ELEMENT_THEORY = SGP/SGP4

EPOCH          = 2025-12-24T20:09:23.217984
MEAN_MOTION    = 15.39644776
ECCENTRICITY   = .00007399
INCLINATION    = 53.1613
RA_OF_ASC_NODE = 129.9627
ARG_OF_PERICENTER = 82.3587
MEAN_ANOMALY   = 277.7502

EPHEMERIS_TYPE = 0
CLASSIFICATION_TYPE = U
NORAD_CAT_ID   = 66623
ELEMENT_SET_NO = 999
REV_AT_EPOCH   = 607
BSTAR          = .82949446E-3
MEAN_MOTION_DOT = .3295E-3
MEAN_MOTION_DDOT = 0

CCSDS_OMM_VERS = 2.0
CREATION_DATE  = 
ORIGINATOR     = 

OBJECT_NAME    = STARLINK-35927
OBJECT_ID      = 2025-271H
CENTER_NAME    = EARTH
REF_FRAME      = TEME
TIME_SYSTEM    = UTC
MEAN_ELEMENT_THEORY = SGP/SGP4

EPOCH          = 2025-12-25T04:00:01.998720
MEAN_MOTION    = 15.39589706
ECCENTRICITY   = .0000268
INCLINATION    = 53.1596
RA_OF_ASC_NODE = 128.0166
ARG_OF_PERICENTER = 108.2894
MEAN_ANOMALY   = 110.3247

EPHEMERIS_TYPE = 0
CLASSIFICATION_TYPE = U
NORAD_CAT_ID   = 66624
ELEMENT_SET_NO = 999
REV_AT_EPOCH   = 608
BSTAR          = .20292E-2
MEAN_MOTION_DOT = .81557E-3
MEAN_MOTION_DDOT = 0

CCSDS_OMM_VERS = 2.0
CREATION_DATE  = 
ORIGINATOR     = 

OBJECT_NAME    = STARLINK-35929
OBJECT_ID      = 2025-271J
CENTER_NAME    = EARTH
REF_FRAME      = TEME
TIME_SYSTEM    = UTC
MEAN_ELEMENT_THEORY = SGP/SGP4

EPOCH          = 2025-12-25T01:56:33.005184
MEAN_MOTION    = 15.39637439
ECCENTRICITY   = .0000915
INCLINATION    = 53.1599
RA_OF_ASC_NODE = 128.6236
ARG_OF_PERICENTER = 76.8291
MEAN_ANOMALY   = 283.2816

EPHEMERIS_TYPE = 0
CLASSIFICATION_TYPE = U
NORAD_CAT_ID   = 66625
ELEMENT_SET_NO = 999
REV_AT_EPOCH   = 611
BSTAR          = .91454E-3
MEAN_MOTION_DOT = .36377E-3
MEAN_MOTION_DDOT = 0

